SAPPHIRE                
1 39088U 13009C   26074.25503203  .00000187  00000+0  80240-4 0  9993
2 39088  98.4227 255.9483 0011541 163.2461 196.9108 14.35211775683101
PRAETORIAN SDA_602      
1 65565U 25203A   26074.13735657  .00000228  00000+0  19327-3 0  9991
2 65565  81.2993  97.8911 0007206  89.2537 270.9445 13.84330997 25684
PRAETORIAN SDA_603      
1 65566U 25203B   26074.20671505  .00000237  00000+0  20326-3 0  9992
2 65566  81.2995  97.6758 0010862  88.6931 271.5470 13.83905268 25703
PRAETORIAN SDA_604      
1 65567U 25203C   26074.31270896  .00000088  00000+0  70029-4 0  9993
2 65567  81.3014  97.8461 0006833  95.1891 265.0045 13.83034986 25707
PRAETORIAN SDA_605      
1 65568U 25203D   26074.16115629  .00000090  00000+0  71196-4 0  9998
2 65568  81.2979  97.7444 0009541  85.1117 275.1129 13.83529607 25698
PRAETORIAN SDA_606      
1 65569U 25203E   26074.29133744  .00000159  00000+0  13318-3 0  9998
2 65569  81.3016  97.8158 0007143  87.3862 272.8112 13.83528625 25709
PRAETORIAN SDA_607      
1 65570U 25203F   26074.21081210  .00000289  00000+0  24704-3 0  9997
2 65570  81.2998  97.6906 0010126  87.6542 272.5774 13.84465916 25706
PRAETORIAN SDA_608      
1 65571U 25203G   26074.30034556  .00000092  00000+0  72009-4 0  9993
2 65571  81.2967  97.7304 0007276  94.4125 265.7863 13.83887633 25707
PRAETORIAN SDA_609      
1 65572U 25203H   26074.33587073 -.00001016  00000+0 -92063-3 0  9994
2 65572  81.3011  97.7045 0007987  97.2322 262.9743 13.84306299 25712
PRAETORIAN SDA_610      
1 65573U 25203J   26072.47635070  .00000077  00000+0  58653-4 0  9991
2 65573  81.2971  99.3847 0007851  94.0979 266.1075 13.84011663 25451
PRAETORIAN SDA_611      
1 65574U 25203K   26074.31667663  .00000342  00000+0  30049-3 0  9993
2 65574  81.2971  97.7613 0007000  97.7063 262.4888 13.83297141 25700
PRAETORIAN SDA_612      
1 65575U 25203L   26074.06219665  .00000260  00000+0  21923-3 0  9991
2 65575  81.2995  97.8134 0010529  88.9731 271.2632 13.85026597 25689
PRAETORIAN SDA_613      
1 65576U 25203M   26074.15103104  .00000246  00000+0  21466-3 0  9998
2 65576  81.2960  97.8573 0006972  91.1001 269.0954 13.82987282 25688
PRAETORIAN SDA_614      
1 65577U 25203N   26074.32273882  .00000065  00000+0  46996-4 0  9994
2 65577  81.2975  97.6267 0008428  87.4300 272.7822 13.84766133 25723
PRAETORIAN SDA_615      
1 65578U 25203P   26074.20413668  .00000250  00000+0  21249-3 0  9999
2 65578  81.2987  97.6408 0010337  87.3460 272.8880 13.84423344 25709
PRAETORIAN SDA_616      
1 65579U 25203Q   26074.31587323  .00000164  00000+0  13884-3 0  9992
2 65579  81.3023  97.8497 0006787  97.1244 263.0685 13.83312362 25706
