[{"OBJECT_NAME":"SAPPHIRE","OBJECT_ID":"2013-009C","EPOCH":"2026-03-15T06:07:14.767392","MEAN_MOTION":14.35211775,"ECCENTRICITY":0.00115416,"INCLINATION":98.4227,"RA_OF_ASC_NODE":255.9483,"ARG_OF_PERICENTER":163.2461,"MEAN_ANOMALY":196.9108,"EPHEMERIS_TYPE":0,"CLASSIFICATION_TYPE":"U","NORAD_CAT_ID":39088,"ELEMENT_SET_NO":999,"REV_AT_EPOCH":68310,"BSTAR":8.0240006e-5,"MEAN_MOTION_DOT":1.87e-6,"MEAN_MOTION_DDOT":0},{"OBJECT_NAME":"PRAETORIAN SDA_602","OBJECT_ID":"2025-203A","EPOCH":"2026-03-15T03:17:47.607648","MEAN_MOTION":13.84330997,"ECCENTRICITY":0.00072069,"INCLINATION":81.2993,"RA_OF_ASC_NODE":97.8911,"ARG_OF_PERICENTER":89.2537,"MEAN_ANOMALY":270.9445,"EPHEMERIS_TYPE":0,"CLASSIFICATION_TYPE":"U","NORAD_CAT_ID":65565,"ELEMENT_SET_NO":999,"REV_AT_EPOCH":2568,"BSTAR":0.00019326793,"MEAN_MOTION_DOT":2.28e-6,"MEAN_MOTION_DDOT":0},{"OBJECT_NAME":"PRAETORIAN SDA_603","OBJECT_ID":"2025-203B","EPOCH":"2026-03-15T04:57:40.180320","MEAN_MOTION":13.83905268,"ECCENTRICITY":0.00108625,"INCLINATION":81.2995,"RA_OF_ASC_NODE":97.6758,"ARG_OF_PERICENTER":88.6931,"MEAN_ANOMALY":271.547,"EPHEMERIS_TYPE":0,"CLASSIFICATION_TYPE":"U","NORAD_CAT_ID":65566,"ELEMENT_SET_NO":999,"REV_AT_EPOCH":2570,"BSTAR":0.00020325956,"MEAN_MOTION_DOT":2.37e-6,"MEAN_MOTION_DDOT":0},{"OBJECT_NAME":"PRAETORIAN SDA_604","OBJECT_ID":"2025-203C","EPOCH":"2026-03-15T07:30:18.054144","MEAN_MOTION":13.83034986,"ECCENTRICITY":0.00068335,"INCLINATION":81.3014,"RA_OF_ASC_NODE":97.8461,"ARG_OF_PERICENTER":95.1891,"MEAN_ANOMALY":265.0045,"EPHEMERIS_TYPE":0,"CLASSIFICATION_TYPE":"U","NORAD_CAT_ID":65567,"ELEMENT_SET_NO":999,"REV_AT_EPOCH":2570,"BSTAR":7.0028895e-5,"MEAN_MOTION_DOT":8.8e-7,"MEAN_MOTION_DDOT":0},{"OBJECT_NAME":"PRAETORIAN SDA_605","OBJECT_ID":"2025-203D","EPOCH":"2026-03-15T03:52:03.903456","MEAN_MOTION":13.83529607,"ECCENTRICITY":0.00095415,"INCLINATION":81.2979,"RA_OF_ASC_NODE":97.7444,"ARG_OF_PERICENTER":85.1117,"MEAN_ANOMALY":275.1129,"EPHEMERIS_TYPE":0,"CLASSIFICATION_TYPE":"U","NORAD_CAT_ID":65568,"ELEMENT_SET_NO":999,"REV_AT_EPOCH":2569,"BSTAR":7.1196451e-5,"MEAN_MOTION_DOT":9.0e-7,"MEAN_MOTION_DDOT":0},{"OBJECT_NAME":"PRAETORIAN SDA_606","OBJECT_ID":"2025-203E","EPOCH":"2026-03-15T06:59:31.554816","MEAN_MOTION":13.83528625,"ECCENTRICITY":0.00071436,"INCLINATION":81.3016,"RA_OF_ASC_NODE":97.8158,"ARG_OF_PERICENTER":87.3862,"MEAN_ANOMALY":272.8112,"EPHEMERIS_TYPE":0,"CLASSIFICATION_TYPE":"U","NORAD_CAT_ID":65569,"ELEMENT_SET_NO":999,"REV_AT_EPOCH":2570,"BSTAR":0.00013317884,"MEAN_MOTION_DOT":1.59e-6,"MEAN_MOTION_DDOT":0},{"OBJECT_NAME":"PRAETORIAN SDA_607","OBJECT_ID":"2025-203F","EPOCH":"2026-03-15T05:03:34.165440","MEAN_MOTION":13.84465916,"ECCENTRICITY":0.00101261,"INCLINATION":81.2998,"RA_OF_ASC_NODE":97.6906,"ARG_OF_PERICENTER":87.6542,"MEAN_ANOMALY":272.5774,"EPHEMERIS_TYPE":0,"CLASSIFICATION_TYPE":"U","NORAD_CAT_ID":65570,"ELEMENT_SET_NO":999,"REV_AT_EPOCH":2570,"BSTAR":0.00024704482,"MEAN_MOTION_DOT":2.89e-6,"MEAN_MOTION_DDOT":0},{"OBJECT_NAME":"PRAETORIAN SDA_608","OBJECT_ID":"2025-203G","EPOCH":"2026-03-15T07:12:29.856384","MEAN_MOTION":13.83887633,"ECCENTRICITY":0.00072767,"INCLINATION":81.2967,"RA_OF_ASC_NODE":97.7304,"ARG_OF_PERICENTER":94.4125,"MEAN_ANOMALY":265.7863,"EPHEMERIS_TYPE":0,"CLASSIFICATION_TYPE":"U","NORAD_CAT_ID":65571,"ELEMENT_SET_NO":999,"REV_AT_EPOCH":2570,"BSTAR":7.2009361e-5,"MEAN_MOTION_DOT":9.2e-7,"MEAN_MOTION_DDOT":0},{"OBJECT_NAME":"PRAETORIAN SDA_609","OBJECT_ID":"2025-203H","EPOCH":"2026-03-15T08:03:39.231072","MEAN_MOTION":13.84306299,"ECCENTRICITY":0.00079876,"INCLINATION":81.3011,"RA_OF_ASC_NODE":97.7045,"ARG_OF_PERICENTER":97.2322,"MEAN_ANOMALY":262.9743,"EPHEMERIS_TYPE":0,"CLASSIFICATION_TYPE":"U","NORAD_CAT_ID":65572,"ELEMENT_SET_NO":999,"REV_AT_EPOCH":2571,"BSTAR":-0.00092062738,"MEAN_MOTION_DOT":-1.016e-5,"MEAN_MOTION_DDOT":0},{"OBJECT_NAME":"PRAETORIAN SDA_610","OBJECT_ID":"2025-203J","EPOCH":"2026-03-13T11:25:56.700480","MEAN_MOTION":13.84011663,"ECCENTRICITY":0.00078517,"INCLINATION":81.2971,"RA_OF_ASC_NODE":99.3847,"ARG_OF_PERICENTER":94.0979,"MEAN_ANOMALY":266.1075,"EPHEMERIS_TYPE":0,"CLASSIFICATION_TYPE":"U","NORAD_CAT_ID":65573,"ELEMENT_SET_NO":999,"REV_AT_EPOCH":2545,"BSTAR":5.8653223e-5,"MEAN_MOTION_DOT":7.7e-7,"MEAN_MOTION_DDOT":0},{"OBJECT_NAME":"PRAETORIAN SDA_611","OBJECT_ID":"2025-203K","EPOCH":"2026-03-15T07:36:00.860832","MEAN_MOTION":13.83297141,"ECCENTRICITY":0.00070002,"INCLINATION":81.2971,"RA_OF_ASC_NODE":97.7613,"ARG_OF_PERICENTER":97.7063,"MEAN_ANOMALY":262.4888,"EPHEMERIS_TYPE":0,"CLASSIFICATION_TYPE":"U","NORAD_CAT_ID":65574,"ELEMENT_SET_NO":999,"REV_AT_EPOCH":2570,"BSTAR":0.00030048682,"MEAN_MOTION_DOT":3.42e-6,"MEAN_MOTION_DDOT":0},{"OBJECT_NAME":"PRAETORIAN SDA_612","OBJECT_ID":"2025-203L","EPOCH":"2026-03-15T01:29:33.790560","MEAN_MOTION":13.85026597,"ECCENTRICITY":0.00105295,"INCLINATION":81.2995,"RA_OF_ASC_NODE":97.8134,"ARG_OF_PERICENTER":88.9731,"MEAN_ANOMALY":271.2632,"EPHEMERIS_TYPE":0,"CLASSIFICATION_TYPE":"U","NORAD_CAT_ID":65575,"ELEMENT_SET_NO":999,"REV_AT_EPOCH":2568,"BSTAR":0.00021923278,"MEAN_MOTION_DOT":2.6e-6,"MEAN_MOTION_DDOT":0},{"OBJECT_NAME":"PRAETORIAN SDA_613","OBJECT_ID":"2025-203M","EPOCH":"2026-03-15T03:37:29.081856","MEAN_MOTION":13.82987282,"ECCENTRICITY":0.0006972,"INCLINATION":81.296,"RA_OF_ASC_NODE":97.8573,"ARG_OF_PERICENTER":91.1001,"MEAN_ANOMALY":269.0954,"EPHEMERIS_TYPE":0,"CLASSIFICATION_TYPE":"U","NORAD_CAT_ID":65576,"ELEMENT_SET_NO":999,"REV_AT_EPOCH":2568,"BSTAR":0.00021465864,"MEAN_MOTION_DOT":2.46e-6,"MEAN_MOTION_DDOT":0},{"OBJECT_NAME":"PRAETORIAN SDA_614","OBJECT_ID":"2025-203N","EPOCH":"2026-03-15T07:44:44.634048","MEAN_MOTION":13.84766133,"ECCENTRICITY":0.00084281,"INCLINATION":81.2975,"RA_OF_ASC_NODE":97.6267,"ARG_OF_PERICENTER":87.43,"MEAN_ANOMALY":272.7822,"EPHEMERIS_TYPE":0,"CLASSIFICATION_TYPE":"U","NORAD_CAT_ID":65577,"ELEMENT_SET_NO":999,"REV_AT_EPOCH":2572,"BSTAR":4.699629e-5,"MEAN_MOTION_DOT":6.5e-7,"MEAN_MOTION_DDOT":0},{"OBJECT_NAME":"PRAETORIAN SDA_615","OBJECT_ID":"2025-203P","EPOCH":"2026-03-15T04:53:57.409152","MEAN_MOTION":13.84423344,"ECCENTRICITY":0.00103376,"INCLINATION":81.2987,"RA_OF_ASC_NODE":97.6408,"ARG_OF_PERICENTER":87.346,"MEAN_ANOMALY":272.888,"EPHEMERIS_TYPE":0,"CLASSIFICATION_TYPE":"U","NORAD_CAT_ID":65578,"ELEMENT_SET_NO":999,"REV_AT_EPOCH":2570,"BSTAR":0.0002124855,"MEAN_MOTION_DOT":2.5e-6,"MEAN_MOTION_DDOT":0},{"OBJECT_NAME":"PRAETORIAN SDA_616","OBJECT_ID":"2025-203Q","EPOCH":"2026-03-15T07:34:51.447072","MEAN_MOTION":13.83312362,"ECCENTRICITY":0.00067875,"INCLINATION":81.3023,"RA_OF_ASC_NODE":97.8497,"ARG_OF_PERICENTER":97.1244,"MEAN_ANOMALY":263.0685,"EPHEMERIS_TYPE":0,"CLASSIFICATION_TYPE":"U","NORAD_CAT_ID":65579,"ELEMENT_SET_NO":999,"REV_AT_EPOCH":2570,"BSTAR":0.00013884089,"MEAN_MOTION_DOT":1.64e-6,"MEAN_MOTION_DDOT":0}]
